{"type": "FeatureCollection", "name": "synthetic_domains", "features": [{"type": "Feature", "properties": {"domain": "D01", "region": "R1"}, "geometry": {"type": "Polygon", "coordinates": [[[0.0, 0.0], [1.0, 0.0], [1.0, 1.0], [0.0, 1.0], [0.0, 0.0]]]}}, {"type": "Feature", "properties": {"domain": "D02", "region": "R1"}, "geometry": {"type": "Polygon", "coordinates": [[[1.0, 0.0], [2.0, 0.0], [2.0, 1.0], [1.0, 1.0], [1.0, 0.0]]]}}, {"type": "Feature", "properties": {"domain": "D03", "region": "R1"}, "geometry": {"type": "Polygon", "coordinates": [[[2.0, 0.0], [3.0, 0.0], [3.0, 1.0], [2.0, 1.0], [2.0, 0.0]]]}}, {"type": "Feature", "properties": {"domain": "D04", "region": "R1"}, "geometry": {"type": "Polygon", "coordinates": [[[3.0, 0.0], [4.0, 0.0], [4.0, 1.0], [3.0, 1.0], [3.0, 0.0]]]}}, {"type": "Feature", "properties": {"domain": "D05", "region": "R1"}, "geometry": {"type": "Polygon", "coordinates": [[[4.0, 0.0], [5.0, 0.0], [5.0, 1.0], [4.0, 1.0], [4.0, 0.0]]]}}, {"type": "Feature", "properties": {"domain": "D06", "region": "R1"}, "geometry": {"type": "Polygon", "coordinates": [[[5.0, 0.0], [6.0, 0.0], [6.0, 1.0], [5.0, 1.0], [5.0, 0.0]]]}}, {"type": "Feature", "properties": {"domain": "D07", "region": "R1"}, "geometry": {"type": "Polygon", "coordinates": [[[6.0, 0.0], [7.0, 0.0], [7.0, 1.0], [6.0, 1.0], [6.0, 0.0]]]}}, {"type": "Feature", "properties": {"domain": "D08", "region": "R1"}, "geometry": {"type": "Polygon", "coordinates": [[[7.0, 0.0], [8.0, 0.0], [8.0, 1.0], [7.0, 1.0], [7.0, 0.0]]]}}, {"type": "Feature", "properties": {"domain": "D09", "region": "R2"}, "geometry": {"type": "Polygon", "coordinates": [[[0.0, 1.0], [1.0, 1.0], [1.0, 2.0], [0.0, 2.0], [0.0, 1.0]]]}}, {"type": "Feature", "properties": {"domain": "D10", "region": "R2"}, "geometry": {"type": "Polygon", "coordinates": [[[1.0, 1.0], [2.0, 1.0], [2.0, 2.0], [1.0, 2.0], [1.0, 1.0]]]}}, {"type": "Feature", "properties": {"domain": "D11", "region": "R2"}, "geometry": {"type": "Polygon", "coordinates": [[[2.0, 1.0], [3.0, 1.0], [3.0, 2.0], [2.0, 2.0], [2.0, 1.0]]]}}, {"type": "Feature", "properties": {"domain": "D12", "region": "R2"}, "geometry": {"type": "Polygon", "coordinates": [[[3.0, 1.0], [4.0, 1.0], [4.0, 2.0], [3.0, 2.0], [3.0, 1.0]]]}}, {"type": "Feature", "properties": {"domain": "D13", "region": "R2"}, "geometry": {"type": "Polygon", "coordinates": [[[4.0, 1.0], [5.0, 1.0], [5.0, 2.0], [4.0, 2.0], [4.0, 1.0]]]}}, {"type": "Feature", "properties": {"domain": "D14", "region": "R2"}, "geometry": {"type": "Polygon", "coordinates": [[[5.0, 1.0], [6.0, 1.0], [6.0, 2.0], [5.0, 2.0], [5.0, 1.0]]]}}, {"type": "Feature", "properties": {"domain": "D15", "region": "R2"}, "geometry": {"type": "Polygon", "coordinates": [[[6.0, 1.0], [7.0, 1.0], [7.0, 2.0], [6.0, 2.0], [6.0, 1.0]]]}}, {"type": "Feature", "properties": {"domain": "D16", "region": "R2"}, "geometry": {"type": "Polygon", "coordinates": [[[7.0, 1.0], [8.0, 1.0], [8.0, 2.0], [7.0, 2.0], [7.0, 1.0]]]}}, {"type": "Feature", "properties": {"domain": "D17", "region": "R3"}, "geometry": {"type": "Polygon", "coordinates": [[[0.0, 2.0], [1.0, 2.0], [1.0, 3.0], [0.0, 3.0], [0.0, 2.0]]]}}, {"type": "Feature", "properties": {"domain": "D18", "region": "R3"}, "geometry": {"type": "Polygon", "coordinates": [[[1.0, 2.0], [2.0, 2.0], [2.0, 3.0], [1.0, 3.0], [1.0, 2.0]]]}}, {"type": "Feature", "properties": {"domain": "D19", "region": "R3"}, "geometry": {"type": "Polygon", "coordinates": [[[2.0, 2.0], [3.0, 2.0], [3.0, 3.0], [2.0, 3.0], [2.0, 2.0]]]}}, {"type": "Feature", "properties": {"domain": "D20", "region": "R3"}, "geometry": {"type": "Polygon", "coordinates": [[[3.0, 2.0], [4.0, 2.0], [4.0, 3.0], [3.0, 3.0], [3.0, 2.0]]]}}, {"type": "Feature", "properties": {"domain": "D21", "region": "R3"}, "geometry": {"type": "Polygon", "coordinates": [[[4.0, 2.0], [5.0, 2.0], [5.0, 3.0], [4.0, 3.0], [4.0, 2.0]]]}}, {"type": "Feature", "properties": {"domain": "D22", "region": "R3"}, "geometry": {"type": "Polygon", "coordinates": [[[5.0, 2.0], [6.0, 2.0], [6.0, 3.0], [5.0, 3.0], [5.0, 2.0]]]}}, {"type": "Feature", "properties": {"domain": "D23", "region": "R3"}, "geometry": {"type": "Polygon", "coordinates": [[[6.0, 2.0], [7.0, 2.0], [7.0, 3.0], [6.0, 3.0], [6.0, 2.0]]]}}, {"type": "Feature", "properties": {"domain": "D24", "region": "R3"}, "geometry": {"type": "Polygon", "coordinates": [[[7.0, 2.0], [8.0, 2.0], [8.0, 3.0], [7.0, 3.0], [7.0, 2.0]]]}}, {"type": "Feature", "properties": {"domain": "D25", "region": "R4"}, "geometry": {"type": "Polygon", "coordinates": [[[0.0, 3.0], [1.0, 3.0], [1.0, 4.0], [0.0, 4.0], [0.0, 3.0]]]}}, {"type": "Feature", "properties": {"domain": "D26", "region": "R4"}, "geometry": {"type": "Polygon", "coordinates": [[[1.0, 3.0], [2.0, 3.0], [2.0, 4.0], [1.0, 4.0], [1.0, 3.0]]]}}, {"type": "Feature", "properties": {"domain": "D27", "region": "R4"}, "geometry": {"type": "Polygon", "coordinates": [[[2.0, 3.0], [3.0, 3.0], [3.0, 4.0], [2.0, 4.0], [2.0, 3.0]]]}}, {"type": "Feature", "properties": {"domain": "D28", "region": "R4"}, "geometry": {"type": "Polygon", "coordinates": [[[3.0, 3.0], [4.0, 3.0], [4.0, 4.0], [3.0, 4.0], [3.0, 3.0]]]}}, {"type": "Feature", "properties": {"domain": "D29", "region": "R4"}, "geometry": {"type": "Polygon", "coordinates": [[[4.0, 3.0], [5.0, 3.0], [5.0, 4.0], [4.0, 4.0], [4.0, 3.0]]]}}, {"type": "Feature", "properties": {"domain": "D30", "region": "R4"}, "geometry": {"type": "Polygon", "coordinates": [[[5.0, 3.0], [6.0, 3.0], [6.0, 4.0], [5.0, 4.0], [5.0, 3.0]]]}}, {"type": "Feature", "properties": {"domain": "D31", "region": "R4"}, "geometry": {"type": "Polygon", "coordinates": [[[6.0, 3.0], [7.0, 3.0], [7.0, 4.0], [6.0, 4.0], [6.0, 3.0]]]}}, {"type": "Feature", "properties": {"domain": "D32", "region": "R4"}, "geometry": {"type": "Polygon", "coordinates": [[[7.0, 3.0], [8.0, 3.0], [8.0, 4.0], [7.0, 4.0], [7.0, 3.0]]]}}, {"type": "Feature", "properties": {"domain": "D33", "region": "R5"}, "geometry": {"type": "Polygon", "coordinates": [[[0.0, 4.0], [1.0, 4.0], [1.0, 5.0], [0.0, 5.0], [0.0, 4.0]]]}}, {"type": "Feature", "properties": {"domain": "D34", "region": "R5"}, "geometry": {"type": "Polygon", "coordinates": [[[1.0, 4.0], [2.0, 4.0], [2.0, 5.0], [1.0, 5.0], [1.0, 4.0]]]}}, {"type": "Feature", "properties": {"domain": "D35", "region": "R5"}, "geometry": {"type": "Polygon", "coordinates": [[[2.0, 4.0], [3.0, 4.0], [3.0, 5.0], [2.0, 5.0], [2.0, 4.0]]]}}, {"type": "Feature", "properties": {"domain": "D36", "region": "R5"}, "geometry": {"type": "Polygon", "coordinates": [[[3.0, 4.0], [4.0, 4.0], [4.0, 5.0], [3.0, 5.0], [3.0, 4.0]]]}}, {"type": "Feature", "properties": {"domain": "D37", "region": "R5"}, "geometry": {"type": "Polygon", "coordinates": [[[4.0, 4.0], [5.0, 4.0], [5.0, 5.0], [4.0, 5.0], [4.0, 4.0]]]}}, {"type": "Feature", "properties": {"domain": "D38", "region": "R5"}, "geometry": {"type": "Polygon", "coordinates": [[[5.0, 4.0], [6.0, 4.0], [6.0, 5.0], [5.0, 5.0], [5.0, 4.0]]]}}, {"type": "Feature", "properties": {"domain": "D39", "region": "R5"}, "geometry": {"type": "Polygon", "coordinates": [[[6.0, 4.0], [7.0, 4.0], [7.0, 5.0], [6.0, 5.0], [6.0, 4.0]]]}}, {"type": "Feature", "properties": {"domain": "D40", "region": "R5"}, "geometry": {"type": "Polygon", "coordinates": [[[7.0, 4.0], [8.0, 4.0], [8.0, 5.0], [7.0, 5.0], [7.0, 4.0]]]}}]}